{
  "type": "FeatureCollection",
  "features": [
    {
      "type": "Feature",
      "properties": {
        "norad_id": 66982,
        "name": "STARLINK-36113",
        "group": "last-30-days",
        "lat": -0.9133756762079372,
        "lon": -42.98424794155877,
        "alt_km": 305.52261243514386,
        "timestamp": "2025-12-17T19:34:06.803436+00:00",
        "meta_object_name": "STARLINK-36113",
        "meta_object_id": "2025-288Z",
        "meta_epoch": "2025-12-16T14:00:03.000384",
        "meta_mean_motion": 15.92425167,
        "meta_eccentricity": 0.00016717,
        "meta_inclination": 43.0015,
        "meta_ra_of_asc_node": 143.6838,
        "meta_arg_of_pericenter": 268.4149,
        "meta_mean_anomaly": 49.5209,
        "meta_ephemeris_type": 0,
        "meta_classification_type": "U",
        "meta_norad_cat_id": 66982,
        "meta_element_set_no": 999,
        "meta_rev_at_epoch": 245,
        "meta_bstar": -0.0044569293,
        "meta_mean_motion_dot": -0.01561743,
        "meta_mean_motion_ddot": 0.00068619318,
        "tle_line1": "1 66982U 25288Z   25350.58336806 -.01561743  68619-3 -44569-2 0  9992",
        "tle_line2": "2 66982  43.0015 143.6838 0001671 268.4149  49.5209 15.92425167  2450"
      },
      "geometry": {
        "type": "Point",
        "coordinates": [
          -42.98424794155877,
          -0.9133756762079372
        ]
      }
    },
    {
      "type": "Feature",
      "properties": {
        "norad_id": 66983,
        "name": "STARLINK-36145",
        "group": "last-30-days",
        "lat": -3.8821410550121516,
        "lon": -39.79944445505679,
        "alt_km": 305.55639540051925,
        "timestamp": "2025-12-17T19:34:06.803446+00:00",
        "meta_object_name": "STARLINK-36145",
        "meta_object_id": "2025-288AA",
        "meta_epoch": "2025-12-16T14:00:03.000384",
        "meta_mean_motion": 15.92537439,
        "meta_eccentricity": 0.00016987,
        "meta_inclination": 43.0015,
        "meta_ra_of_asc_node": 143.6739,
        "meta_arg_of_pericenter": 269.014,
        "meta_mean_anomaly": 52.8562,
        "meta_ephemeris_type": 0,
        "meta_classification_type": "U",
        "meta_norad_cat_id": 66983,
        "meta_element_set_no": 999,
        "meta_rev_at_epoch": 245,
        "meta_bstar": -0.004474027,
        "meta_mean_motion_dot": -0.0157679,
        "meta_mean_motion_ddot": 0.00069916464,
        "tle_line1": "1 66983U 25288AA  25350.58336806 -.01576790  69916-3 -44740-2 0  9993",
        "tle_line2": "2 66983  43.0015 143.6739 0001698 269.0140  52.8562 15.92537439  2453"
      },
      "geometry": {
        "type": "Point",
        "coordinates": [
          -39.79944445505679,
          -3.8821410550121516
        ]
      }
    },
    {
      "type": "Feature",
      "properties": {
        "norad_id": 66984,
        "name": "STARLINK-35591",
        "group": "last-30-days",
        "lat": -2.4247800077213424,
        "lon": -41.366100349012726,
        "alt_km": 305.3783424260737,
        "timestamp": "2025-12-17T19:34:06.803459+00:00",
        "meta_object_name": "STARLINK-35591",
        "meta_object_id": "2025-288AB",
        "meta_epoch": "2025-12-16T14:00:03.000384",
        "meta_mean_motion": 15.92465304,
        "meta_eccentricity": 0.00017325,
        "meta_inclination": 43.0015,
        "meta_ra_of_asc_node": 143.6783,
        "meta_arg_of_pericenter": 266.0407,
        "meta_mean_anomaly": 53.8937,
        "meta_ephemeris_type": 0,
        "meta_classification_type": "U",
        "meta_norad_cat_id": 66984,
        "meta_element_set_no": 999,
        "meta_rev_at_epoch": 245,
        "meta_bstar": -0.0044232003,
        "meta_mean_motion_dot": -0.01553302,
        "meta_mean_motion_ddot": 0.00067965655,
        "tle_line1": "1 66984U 25288AB  25350.58336806 -.01553302  67966-3 -44232-2 0  9997",
        "tle_line2": "2 66984  43.0015 143.6783 0001732 266.0407  53.8937 15.92465304  2453"
      },
      "geometry": {
        "type": "Point",
        "coordinates": [
          -41.366100349012726,
          -2.4247800077213424
        ]
      }
    },
    {
      "type": "Feature",
      "properties": {
        "norad_id": 66985,
        "name": "STARLINK-36103",
        "group": "last-30-days",
        "lat": -5.475189754285468,
        "lon": -38.07761999288078,
        "alt_km": 305.61232669718265,
        "timestamp": "2025-12-17T19:34:06.803469+00:00",
        "meta_object_name": "STARLINK-36103",
        "meta_object_id": "2025-288AC",
        "meta_epoch": "2025-12-16T14:00:03.000384",
        "meta_mean_motion": 15.92580006,
        "meta_eccentricity": 0.00016733,
        "meta_inclination": 43.0015,
        "meta_ra_of_asc_node": 143.6685,
        "meta_arg_of_pericenter": 271.4634,
        "meta_mean_anomaly": 52.5224,
        "meta_ephemeris_type": 0,
        "meta_classification_type": "U",
        "meta_norad_cat_id": 66985,
        "meta_element_set_no": 999,
        "meta_rev_at_epoch": 245,
        "meta_bstar": -0.0044405441,
        "meta_mean_motion_dot": -0.01568579,
        "meta_mean_motion_ddot": 0.00069277013,
        "tle_line1": "1 66985U 25288AC  25350.58336806 -.01568579  69277-3 -44405-2 0  9999",
        "tle_line2": "2 66985  43.0015 143.6685 0001673 271.4634  52.5224 15.92580006  2453"
      },
      "geometry": {
        "type": "Point",
        "coordinates": [
          -38.07761999288078,
          -5.475189754285468
        ]
      }
    },
    {
      "type": "Feature",
      "properties": {
        "norad_id": 66986,
        "name": "STARLINK-36135",
        "group": "last-30-days",
        "lat": -7.043837495503918,
        "lon": -36.368296423156025,
        "alt_km": 305.4619547594002,
        "timestamp": "2025-12-17T19:34:06.803479+00:00",
        "meta_object_name": "STARLINK-36135",
        "meta_object_id": "2025-288AD",
        "meta_epoch": "2025-12-16T14:00:03.000384",
        "meta_mean_motion": 15.92642387,
        "meta_eccentricity": 0.00016814,
        "meta_inclination": 43.0011,
        "meta_ra_of_asc_node": 143.6626,
        "meta_arg_of_pericenter": 267.8372,
        "meta_mean_anomaly": 58.252,
        "meta_ephemeris_type": 0,
        "meta_classification_type": "U",
        "meta_norad_cat_id": 66986,
        "meta_element_set_no": 999,
        "meta_rev_at_epoch": 245,
        "meta_bstar": -0.0044628968,
        "meta_mean_motion_dot": -0.01581478,
        "meta_mean_motion_ddot": 0.00070371327,
        "tle_line1": "1 66986U 25288AD  25350.58336806 -.01581478  70371-3 -44629-2 0  9998",
        "tle_line2": "2 66986  43.0011 143.6626 0001681 267.8372  58.2520 15.92642387  2455"
      },
      "geometry": {
        "type": "Point",
        "coordinates": [
          -36.368296423156025,
          -7.043837495503918
        ]
      }
    },
    {
      "type": "Feature",
      "properties": {
        "norad_id": 66987,
        "name": "STARLINK-36147",
        "group": "last-30-days",
        "lat": -8.493773966466108,
        "lon": -34.77095168886233,
        "alt_km": 305.308819341908,
        "timestamp": "2025-12-17T19:34:06.803493+00:00",
        "meta_object_name": "STARLINK-36147",
        "meta_object_id": "2025-288AE",
        "meta_epoch": "2025-12-16T14:00:03.000384",
        "meta_mean_motion": 15.92698379,
        "meta_eccentricity": 0.00016681,
        "meta_inclination": 43.0016,
        "meta_ra_of_asc_node": 143.6583,
        "meta_arg_of_pericenter": 265.3485,
        "meta_mean_anomaly": 62.6556,
        "meta_ephemeris_type": 0,
        "meta_classification_type": "U",
        "meta_norad_cat_id": 66987,
        "meta_element_set_no": 999,
        "meta_rev_at_epoch": 245,
        "meta_bstar": -0.004457972,
        "meta_mean_motion_dot": -0.01584339,
        "meta_mean_motion_ddot": 0.00070644415,
        "tle_line1": "1 66987U 25288AE  25350.58336806 -.01584339  70644-3 -44580-2 0  9997",
        "tle_line2": "2 66987  43.0016 143.6583 0001668 265.3485  62.6556 15.92698379  2456"
      },
      "geometry": {
        "type": "Point",
        "coordinates": [
          -34.77095168886233,
          -8.493773966466108
        ]
      }
    },
    {
      "type": "Feature",
      "properties": {
        "norad_id": 66988,
        "name": "YAOGAN-47",
        "group": "last-30-days",
        "lat": 82.33542893962239,
        "lon": -22.331931963907937,
        "alt_km": 488.2644317370032,
        "timestamp": "2025-12-17T19:34:06.803503+00:00",
        "meta_object_name": "YAOGAN-47",
        "meta_object_id": "2025-289A",
        "meta_epoch": "2025-12-15T02:32:19.481856",
        "meta_mean_motion": 15.23184629,
        "meta_eccentricity": 7.87e-05,
        "meta_inclination": 97.5271,
        "meta_ra_of_asc_node": 54.2297,
        "meta_arg_of_pericenter": 67.3408,
        "meta_mean_anomaly": 292.7912,
        "meta_ephemeris_type": 0,
        "meta_classification_type": "U",
        "meta_norad_cat_id": 66988,
        "meta_element_set_no": 999,
        "meta_rev_at_epoch": 90,
        "meta_bstar": 0.00011849353,
        "meta_mean_motion_dot": 2.729e-05,
        "meta_mean_motion_ddot": 0,
        "tle_line1": "1 66988U 25289A   25349.10578104  .00002729  00000+0  11849-3 0  9997",
        "tle_line2": "2 66988  97.5271  54.2297 0000787  67.3408 292.7912 15.23184629   901"
      },
      "geometry": {
        "type": "Point",
        "coordinates": [
          -22.331931963907937,
          82.33542893962239
        ]
      }
    }
  ]
}